OSCAR 7 (AO-7)          
1 07530U 74089B   20126.21589743 -.00000044  00000-0  56386-5 0  9995
2 07530 101.7965  96.2045 0012617  87.0995 285.5334 12.53643313 80578
UOSAT 2 (UO-11)         
1 14781U 84021B   20126.11187249  .00000074  00000-0  15140-4 0  9996
2 14781  97.5924 140.2375 0008185 354.6627   5.4499 14.83162532925402
LUSAT (LO-19)           
1 20442U 90005G   20126.42975327 -.00000020  00000-0  91805-5 0  9997
2 20442  98.6889  73.5409 0010635 283.3956  76.6042 14.32951737582452
ITAMSAT (IO-26)         
1 22826U 93061D   20126.06075581  .00000003  00000-0  18992-4 0  9998
2 22826  98.9180 127.3724 0009819 127.4581 232.7495 14.30419243387841
RADIO ROSTO (RS-15)     
1 23439U 94085A   20126.46208156 -.00000044  00000-0 -48543-4 0  9998
2 23439  64.8160 315.7757 0148406  50.4239 310.9685 11.27569344 44337
JAS-2 (FO-29)           
1 24278U 96046B   20126.20728778 -.00000020  00000-0  13470-4 0  9992
2 24278  98.5777 241.7160 0351251 126.7660 236.6270 13.53097686171030
TECHSAT 1B (GO-32)      
1 25397U 98043D   20126.08251958 -.00000028  00000-0  69605-5 0  9991
2 25397  98.7256  67.9168 0001573 140.8384 219.2909 14.23684055133384
ISS (ZARYA)             
1 25544U 98067A   20126.67269083  .00000922  00000-0  24593-4 0  9992
2 25544  51.6445 198.8891 0001100 241.2399 276.2595 15.49349906225424
PCSAT (NO-44)           
1 26931U 01043C   20126.45261524 -.00000067  00000-0  59891-5 0  9990
2 26931  67.0512 253.3612 0005807 267.5904  92.4533 14.30575785970994
SAUDISAT 1C (SO-50)     
1 27607U 02058C   20126.19783390 -.00000013  00000-0  18868-4 0  9998
2 27607  64.5537 146.6195 0053441 188.8867 171.1296 14.75630864934343
CUTE-1 (CO-55)          
1 27844U 03031E   20126.02544869  .00000060  00000-0  46879-4 0  9995
2 27844  98.6830 134.4145 0009937 174.1625 185.9670 14.22235213873961
CUBESAT XI-IV (CO-57)   
1 27848U 03031J   20126.25059873  .00000041  00000-0  38563-4 0  9990
2 27848  98.6899 135.1892 0009590 185.7077 174.3993 14.21822309873834
MOZHAYETS 4 (RS-22)     
1 27939U 03042A   20126.54820524  .00000127  00000-0  31407-4 0  9999
2 27939  98.0828 261.9542 0014119 126.0808 234.1704 14.66856441887725
CUBESAT XI-V            
1 28895U 05043F   20126.34875255  .00000106  00000-0  29279-4 0  9994
2 28895  98.0027 263.9275 0017937  59.7049 300.5926 14.63763449774533
CUTE-1.7+APD II (CO-65) 
1 32785U 08021C   20126.44234299  .00000202  00000-0  27338-4 0  9995
2 32785  97.5716 116.3559 0011440 277.3033  82.6884 14.88458610651549
DELFI-C3 (DO-64)        
1 32789U 08021G   20126.12877242  .00001478  00000-0  10076-3 0  9991
2 32789  97.4223 170.4381 0013833 103.7807 256.4961 15.07646545655288
SEEDS II (CO-66)        
1 32791U 08021J   20125.98061593  .00000224  00000-0  27954-4 0  9993
2 32791  97.5403 122.0543 0011740 244.6996 115.3007 14.91029427651909
YUBILEINY (RS-30)       
1 32953U 08025A   20126.49918948  .00000037  00000-0  19437-3 0  9997
2 32953  82.5006 304.6246 0019635 145.7403 214.4949 12.43095383542291
KKS-1 (KISEKI)          
1 33499U 09002H   20126.18611367  .00000097  00000-0  22254-4 0  9998
2 33499  98.3224 339.7065 0007787 262.4227  97.6097 14.75526465606202
SWISSCUBE               
1 35932U 09051B   20126.20872957  .00000134  00000-0  41288-4 0  9993
2 35932  98.6098 307.1056 0006368 257.7412 102.3072 14.56384462563537
BEESAT-1                
1 35933U 09051C   20126.46814261  .00000115  00000-0  36900-4 0  9990
2 35933  98.6098 309.2327 0004552 272.8922  87.1754 14.56461537563726
ITUPSAT1                
1 35935U 09051E   20126.43772439  .00000066  00000-0  26328-4 0  9997
2 35935  98.6206 309.4073 0006880 271.3272  88.7136 14.55608687563445
XIWANG-1 (HOPE-1)       
1 36122U 09072B   20126.23492934 -.00000035  00000-0  18684-4 0  9999
2 36122 100.0918 118.7013 0007061 327.9750  32.0955 13.16354391499184
JUGNU                   
1 37839U 11058B   20125.86123505  .00000299  00000-0  17626-4 0  9991
2 37839  19.9599 187.1253 0018714 267.9506 249.9466 14.12678720442612
SRMSAT                  
1 37841U 11058D   20126.01815926  .00000307  00000-0  23503-4 0  9998
2 37841  19.9716 249.6055 0011859 126.0568  31.7295 14.10657502442021
M-CUBED & EXP-1 PRIME   
1 37855U 11061F   20126.13363288  .00001196  00000-0  66698-4 0  9998
2 37855 101.7141 192.2217 0171336 203.4359 155.8978 15.06193754465151
STRAND-1                
1 39090U 13009E   20126.13179902  .00000029  00000-0  25078-4 0  9994
2 39090  98.4608 331.2161 0010216  57.6516 302.5657 14.35128360376495
SOMP                    
1 39134U 13015E   20126.17865520  .00001116  00000-0  58723-4 0  9993
2 39134  64.8637  58.2703 0035574 250.6833 109.0447 15.20970812389091
BEESAT-3                
1 39135U 13015F   20126.35757841  .00000739  00000-0  45375-4 0  9999
2 39135  64.8656  80.5919 0039309 255.2637 104.4131 15.18105915389060
BEESAT-2                
1 39136U 13015G   20126.38787248  .00000982  00000-0  58273-4 0  9998
2 39136  64.8675  85.3173 0029293 281.3205  78.4630 15.17491077388978
ZACUBE-1 (TSHEPISOSAT)  
1 39417U 13066B   20126.06486856  .00000197  00000-0  30858-4 0  9999
2 39417  97.5650 126.5030 0060291  60.9835 299.7402 14.81259991348618
GOMX-1                  
1 39430U 13066Q   20126.47342530  .00000211  00000-0  47489-4 0  9994
2 39430  97.7872  67.6039 0150370 320.5360  38.4957 14.59387023343533
CUBEBUG-2 (LO-74)       
1 39440U 13066AA  20126.10306194  .00000192  00000-0  33431-4 0  9991
2 39440  97.6288 111.0072 0081451 120.3935 240.5358 14.75996793346185
FUNCUBE-1 (AO-73)       
1 39444U 13066AE  20125.95250128  .00000245  00000-0  36187-4 0  9992
2 39444  97.5596 128.6026 0059301  53.9640 306.7049 14.82109134346923
UWE-3                   
1 39446U 13066AG  20126.43656273  .00000191  00000-0  31744-4 0  9993
2 39446  97.5973 118.5143 0071558  90.1548 270.7864 14.78531460346808
SPROUT                  
1 39770U 14029E   20126.37193542  .00000678  00000-0  80454-4 0  9993
2 39770  97.8919 232.8441 0010194 106.1859 254.0468 14.87719352322654
UNISAT-6                
1 40012U 14033C   20126.16601637  .00000175  00000-0  33230-4 0  9997
2 40012  97.7166 343.1608 0059194 138.9650 221.6035 14.74101671316045
DUCHIFAT-1              
1 40021U 14033M   20126.05749015  .00000209  00000-0  27078-4 0  9999
2 40021  97.9412  57.0324 0014404  72.2221 288.0567 14.90879949319426
QB50P1                  
1 40025U 14033R   20126.04723800  .00000202  00000-0  27405-4 0  9993
2 40025  97.9148  50.3643 0013955  82.7469 277.5333 14.89118952319147
NUDT-PHONESAT           
1 40900U 15049B   20126.52580125  .00002057  00000-0  87793-4 0  9993
2 40900  97.4320 137.8536 0013804 128.7799  22.5011 15.23960097256659
ZDPS 2A                 
1 40901U 15049C   20126.57146963  .00000681  00000-0  36517-4 0  9996
2 40901  97.4626 132.8807 0013873 155.7495 326.3464 15.18218861256065
ZDPS 2B                 
1 40902U 15049D   20126.55232942  .00001078  00000-0  55937-4 0  9996
2 40902  97.4612 130.1545 0013956 152.9802 323.2907 15.18201354256038
XW-2A                   
1 40903U 15049E   20126.58679410  .00002042  00000-0  48214-4 0  9997
2 40903  97.2923 175.5010 0014775  62.5214  94.1923 15.42953850259863
KAITUO 1A               
1 40904U 15049F   20126.55739134  .00000454  00000-0  27318-4 0  9992
2 40904  97.4768 128.2909 0014680 165.4259 353.1799 15.15678576255743
2015-049G               
1 40905U 15049G   20126.53544340  .00000603  00000-0  36192-4 0  9990
2 40905  97.4847 125.5209 0015905 163.0258 312.2693 15.14531501255585
XW-2C                   
1 40906U 15049H   20126.54802145  .00000678  00000-0  38673-4 0  9990
2 40906  97.4769 128.5323 0015193 156.7032 321.6734 15.16032095255752
XW-2D                   
1 40907U 15049J   20126.41407084  .00000714  00000-0  40293-4 0  9992
2 40907  97.4750 128.1010 0014610 154.0539 312.1371 15.16259308255758
LILACSAT-2              
1 40908U 15049K   20126.55470014  .00000255  00000-0  17638-4 0  9998
2 40908  97.4908 126.6499 0016067 164.0469 313.9587 15.14016493255504
XW-2F                   
1 40910U 15049M   20126.38503103  .00000964  00000-0  50791-4 0  9992
2 40910  97.4680 130.5804 0015635 145.8371 321.9109 15.17871788255808
XW-2B                   
1 40911U 15049N   20126.52990124  .00000828  00000-0  46228-4 0  9991
2 40911  97.4764 128.9075 0014700 154.6336 322.4718 15.16186864255663
KAITUO 1B               
1 40912U 15049P   20126.52081569  .00001019  00000-0  50031-4 0  9996
2 40912  97.4495 134.8189 0016130 124.8284  26.7246 15.20255088256196
TIANWANG 1C (TW-1C)     
1 40926U 15051B   20126.41558535  .00019188  00000-0  20184-3 0  9995
2 40926  97.0888 177.9448 0004592 234.4464 252.6571 15.64334199260292
TIANWANG 1A (TW-1A)     
1 40928U 15051D   20126.53365348  .00002824  00000-0  67166-4 0  9999
2 40928  97.1130 155.4068 0010276 354.2051 162.0706 15.42413190258750
LAPAN-A2                
1 40931U 15052B   20125.02811343  .00000898  00000-0  35794-4 0  9999
2 40931   5.9957 292.2308 0014530   7.3956 280.7373 14.76636066248675
E-ST@R-II               
1 41459U 16025D   20126.48458556  .00001066  00000-0  57746-4 0  9999
2 41459  98.0973 234.2481 0164861 356.9243   3.0945 15.06336556220974
AAUSAT 4                
1 41460U 16025E   20126.55395937  .00001385  00000-0  71678-4 0  9996
2 41460  98.0964 236.5008 0153637 345.9135  13.7820 15.08595924221174
NUSAT-1 (FRESCO)        
1 41557U 16033B   20126.41895896  .00001092  00000-0  42730-4 0  9998
2 41557  97.4021 216.9278 0012157 236.1311 123.8772 15.27933109219209
BEESAT-4                
1 41619U 16040W   20126.15518787  .00001106  00000-0  48629-4 0  9996
2 41619  97.3230 186.7072 0010290 341.0503  19.0350 15.23910690202802
CAS-2T & KS-1Q          
1 41847U 16066G   20126.13831737  .00000024  00000-0  14344-4 0  9993
2 41847  98.6586 176.2019 0365637 358.1945   1.7898 14.38060720183195
